KNACKSAT-2              
1 67683U 98067XZ  26170.59247606  .00040473  00000+0  49084-3 0  9990
2 67683  51.6307 282.3774 0008934 225.7617 134.2643 15.60167582 20658
INNOSAT 3 (RS92S0)      
1 64894U 25155U   26171.42361041  .00031450  00000+0  68898-3 0  9991
2 64894  97.4490 142.9971 0006971 143.2163 216.9565 15.44025197 81463
