OBJECT_NAME,OBJECT_ID,EPOCH,MEAN_MOTION,ECCENTRICITY,INCLINATION,RA_OF_ASC_NODE,ARG_OF_PERICENTER,MEAN_ANOMALY,EPHEMERIS_TYPE,CLASSIFICATION_TYPE,NORAD_CAT_ID,ELEMENT_SET_NO,REV_AT_EPOCH,BSTAR,MEAN_MOTION_DOT,MEAN_MOTION_DDOT
INNOSAT 3 (RS92S0),2025-155U,2026-06-20T10:09:59.939424,15.44025197,.0006971,97.4490,142.9971,143.2163,216.9565,0,U,64894,999,8146,.68898E-3,.3145E-3,0
KNACKSAT-2,1998-067XZ,2026-06-19T14:13:09.931584,15.60167582,.00089348,51.6307,282.3774,225.7617,134.2643,0,U,67683,999,2065,.49084338E-3,.40473E-3,0
